<?xml version="1.0" encoding="UTF-8"?>
<ndm xmlns:xsi="http://www.w3.org/2001/XMLSchema-instance" xsi:noNamespaceSchemaLocation="https://sanaregistry.org/r/ndmxml_unqualified/ndmxml-2.0.0-master-2.0.xsd">
<omm id="CCSDS_OMM_VERS" version="2.0">
<header><CREATION_DATE/><ORIGINATOR/></header><body><segment><metadata><OBJECT_NAME>GLOBALSTAR M067</OBJECT_NAME><OBJECT_ID>2007-048A</OBJECT_ID><CENTER_NAME>EARTH</CENTER_NAME><REF_FRAME>TEME</REF_FRAME><TIME_SYSTEM>UTC</TIME_SYSTEM><MEAN_ELEMENT_THEORY>SGP4</MEAN_ELEMENT_THEORY></metadata><data><meanElements><EPOCH>2025-05-10T05:32:30.765696</EPOCH><MEAN_MOTION>12.40672058</MEAN_MOTION><ECCENTRICITY>.0000999</ECCENTRICITY><INCLINATION>51.9697</INCLINATION><RA_OF_ASC_NODE>146.9951</RA_OF_ASC_NODE><ARG_OF_PERICENTER>262.2026</ARG_OF_PERICENTER><MEAN_ANOMALY>177.5212</MEAN_ANOMALY></meanElements><tleParameters><EPHEMERIS_TYPE>0</EPHEMERIS_TYPE><CLASSIFICATION_TYPE>U</CLASSIFICATION_TYPE><NORAD_CAT_ID>32263</NORAD_CAT_ID><ELEMENT_SET_NO>999</ELEMENT_SET_NO><REV_AT_EPOCH>80477</REV_AT_EPOCH><BSTAR>.28484E-3</BSTAR><MEAN_MOTION_DOT>-.59E-6</MEAN_MOTION_DOT><MEAN_MOTION_DDOT>0</MEAN_MOTION_DDOT></tleParameters></data></segment></body></omm>
<omm id="CCSDS_OMM_VERS" version="2.0">
<header><CREATION_DATE/><ORIGINATOR/></header><body><segment><metadata><OBJECT_NAME>GLOBALSTAR M070</OBJECT_NAME><OBJECT_ID>2007-048B</OBJECT_ID><CENTER_NAME>EARTH</CENTER_NAME><REF_FRAME>TEME</REF_FRAME><TIME_SYSTEM>UTC</TIME_SYSTEM><MEAN_ELEMENT_THEORY>SGP4</MEAN_ELEMENT_THEORY></metadata><data><meanElements><EPOCH>2025-05-10T18:37:07.912128</EPOCH><MEAN_MOTION>12.62317614</MEAN_MOTION><ECCENTRICITY>.0000645</ECCENTRICITY><INCLINATION>51.9748</INCLINATION><RA_OF_ASC_NODE>242.4737</RA_OF_ASC_NODE><ARG_OF_PERICENTER>110.2634</ARG_OF_PERICENTER><MEAN_ANOMALY>14.1514</MEAN_ANOMALY></meanElements><tleParameters><EPHEMERIS_TYPE>0</EPHEMERIS_TYPE><CLASSIFICATION_TYPE>U</CLASSIFICATION_TYPE><NORAD_CAT_ID>32264</NORAD_CAT_ID><ELEMENT_SET_NO>999</ELEMENT_SET_NO><REV_AT_EPOCH>80894</REV_AT_EPOCH><BSTAR>.85027E-4</BSTAR><MEAN_MOTION_DOT>-.89E-6</MEAN_MOTION_DOT><MEAN_MOTION_DDOT>0</MEAN_MOTION_DDOT></tleParameters></data></segment></body></omm>
<omm id="CCSDS_OMM_VERS" version="2.0">
<header><CREATION_DATE/><ORIGINATOR/></header><body><segment><metadata><OBJECT_NAME>GLOBALSTAR M066</OBJECT_NAME><OBJECT_ID>2007-048C</OBJECT_ID><CENTER_NAME>EARTH</CENTER_NAME><REF_FRAME>TEME</REF_FRAME><TIME_SYSTEM>UTC</TIME_SYSTEM><MEAN_ELEMENT_THEORY>SGP4</MEAN_ELEMENT_THEORY></metadata><data><meanElements><EPOCH>2025-05-10T18:03:47.829024</EPOCH><MEAN_MOTION>12.35103787</MEAN_MOTION><ECCENTRICITY>.0001634</ECCENTRICITY><INCLINATION>51.9616</INCLINATION><RA_OF_ASC_NODE>133.8355</RA_OF_ASC_NODE><ARG_OF_PERICENTER>166.4172</ARG_OF_PERICENTER><MEAN_ANOMALY>5.3821</MEAN_ANOMALY></meanElements><tleParameters><EPHEMERIS_TYPE>0</EPHEMERIS_TYPE><CLASSIFICATION_TYPE>U</CLASSIFICATION_TYPE><NORAD_CAT_ID>32265</NORAD_CAT_ID><ELEMENT_SET_NO>999</ELEMENT_SET_NO><REV_AT_EPOCH>81067</REV_AT_EPOCH><BSTAR>.17629E-3</BSTAR><MEAN_MOTION_DOT>-.74E-6</MEAN_MOTION_DOT><MEAN_MOTION_DDOT>0</MEAN_MOTION_DDOT></tleParameters></data></segment></body></omm>
<omm id="CCSDS_OMM_VERS" version="2.0">
<header><CREATION_DATE/><ORIGINATOR/></header><body><segment><metadata><OBJECT_NAME>GLOBALSTAR M068</OBJECT_NAME><OBJECT_ID>2007-048D</OBJECT_ID><CENTER_NAME>EARTH</CENTER_NAME><REF_FRAME>TEME</REF_FRAME><TIME_SYSTEM>UTC</TIME_SYSTEM><MEAN_ELEMENT_THEORY>SGP4</MEAN_ELEMENT_THEORY></metadata><data><meanElements><EPOCH>2025-05-10T16:56:18.496032</EPOCH><MEAN_MOTION>12.62822646</MEAN_MOTION><ECCENTRICITY>.000157</ECCENTRICITY><INCLINATION>51.9897</INCLINATION><RA_OF_ASC_NODE>56.5102</RA_OF_ASC_NODE><ARG_OF_PERICENTER>53.7163</ARG_OF_PERICENTER><MEAN_ANOMALY>332.4638</MEAN_ANOMALY></meanElements><tleParameters><EPHEMERIS_TYPE>0</EPHEMERIS_TYPE><CLASSIFICATION_TYPE>U</CLASSIFICATION_TYPE><NORAD_CAT_ID>32266</NORAD_CAT_ID><ELEMENT_SET_NO>999</ELEMENT_SET_NO><REV_AT_EPOCH>81282</REV_AT_EPOCH><BSTAR>.89613E-4</BSTAR><MEAN_MOTION_DOT>-.88E-6</MEAN_MOTION_DOT><MEAN_MOTION_DDOT>0</MEAN_MOTION_DDOT></tleParameters></data></segment></body></omm>
<omm id="CCSDS_OMM_VERS" version="2.0">
<header><CREATION_DATE/><ORIGINATOR/></header><body><segment><metadata><OBJECT_NAME>GLOBALSTAR M079</OBJECT_NAME><OBJECT_ID>2010-054A</OBJECT_ID><CENTER_NAME>EARTH</CENTER_NAME><REF_FRAME>TEME</REF_FRAME><TIME_SYSTEM>UTC</TIME_SYSTEM><MEAN_ELEMENT_THEORY>SGP4</MEAN_ELEMENT_THEORY></metadata><data><meanElements><EPOCH>2025-05-10T15:11:19.697568</EPOCH><MEAN_MOTION>12.62273942</MEAN_MOTION><ECCENTRICITY>.0000755</ECCENTRICITY><INCLINATION>52.0036</INCLINATION><RA_OF_ASC_NODE>254.1060</RA_OF_ASC_NODE><ARG_OF_PERICENTER>148.0455</ARG_OF_PERICENTER><MEAN_ANOMALY>224.7297</MEAN_ANOMALY></meanElements><tleParameters><EPHEMERIS_TYPE>0</EPHEMERIS_TYPE><CLASSIFICATION_TYPE>U</CLASSIFICATION_TYPE><NORAD_CAT_ID>37188</NORAD_CAT_ID><ELEMENT_SET_NO>999</ELEMENT_SET_NO><REV_AT_EPOCH>67239</REV_AT_EPOCH><BSTAR>.41079E-4</BSTAR><MEAN_MOTION_DOT>-.96E-6</MEAN_MOTION_DOT><MEAN_MOTION_DDOT>0</MEAN_MOTION_DDOT></tleParameters></data></segment></body></omm>
<omm id="CCSDS_OMM_VERS" version="2.0">
<header><CREATION_DATE/><ORIGINATOR/></header><body><segment><metadata><OBJECT_NAME>GLOBALSTAR M074</OBJECT_NAME><OBJECT_ID>2010-054B</OBJECT_ID><CENTER_NAME>EARTH</CENTER_NAME><REF_FRAME>TEME</REF_FRAME><TIME_SYSTEM>UTC</TIME_SYSTEM><MEAN_ELEMENT_THEORY>SGP4</MEAN_ELEMENT_THEORY></metadata><data><meanElements><EPOCH>2025-05-10T20:18:43.727616</EPOCH><MEAN_MOTION>12.62274837</MEAN_MOTION><ECCENTRICITY>.0000471</ECCENTRICITY><INCLINATION>52.0016</INCLINATION><RA_OF_ASC_NODE>252.7862</RA_OF_ASC_NODE><ARG_OF_PERICENTER>123.6034</ARG_OF_PERICENTER><MEAN_ANOMALY>18.4068</MEAN_ANOMALY></meanElements><tleParameters><EPHEMERIS_TYPE>0</EPHEMERIS_TYPE><CLASSIFICATION_TYPE>U</CLASSIFICATION_TYPE><NORAD_CAT_ID>37189</NORAD_CAT_ID><ELEMENT_SET_NO>999</ELEMENT_SET_NO><REV_AT_EPOCH>67234</REV_AT_EPOCH><BSTAR>.22582E-4</BSTAR><MEAN_MOTION_DOT>-.1E-5</MEAN_MOTION_DOT><MEAN_MOTION_DDOT>0</MEAN_MOTION_DDOT></tleParameters></data></segment></body></omm>
<omm id="CCSDS_OMM_VERS" version="2.0">
<header><CREATION_DATE/><ORIGINATOR/></header><body><segment><metadata><OBJECT_NAME>GLOBALSTAR M076</OBJECT_NAME><OBJECT_ID>2010-054C</OBJECT_ID><CENTER_NAME>EARTH</CENTER_NAME><REF_FRAME>TEME</REF_FRAME><TIME_SYSTEM>UTC</TIME_SYSTEM><MEAN_ELEMENT_THEORY>SGP4</MEAN_ELEMENT_THEORY></metadata><data><meanElements><EPOCH>2025-05-10T14:33:38.636352</EPOCH><MEAN_MOTION>12.62262456</MEAN_MOTION><ECCENTRICITY>.0000466</ECCENTRICITY><INCLINATION>52.0026</INCLINATION><RA_OF_ASC_NODE>253.6812</RA_OF_ASC_NODE><ARG_OF_PERICENTER>149.2855</ARG_OF_PERICENTER><MEAN_ANOMALY>224.3778</MEAN_ANOMALY></meanElements><tleParameters><EPHEMERIS_TYPE>0</EPHEMERIS_TYPE><CLASSIFICATION_TYPE>U</CLASSIFICATION_TYPE><NORAD_CAT_ID>37190</NORAD_CAT_ID><ELEMENT_SET_NO>999</ELEMENT_SET_NO><REV_AT_EPOCH>67239</REV_AT_EPOCH><BSTAR>.1062E-5</BSTAR><MEAN_MOTION_DOT>-.104E-5</MEAN_MOTION_DOT><MEAN_MOTION_DDOT>0</MEAN_MOTION_DDOT></tleParameters></data></segment></body></omm>
<omm id="CCSDS_OMM_VERS" version="2.0">
<header><CREATION_DATE/><ORIGINATOR/></header><body><segment><metadata><OBJECT_NAME>GLOBALSTAR M077</OBJECT_NAME><OBJECT_ID>2010-054D</OBJECT_ID><CENTER_NAME>EARTH</CENTER_NAME><REF_FRAME>TEME</REF_FRAME><TIME_SYSTEM>UTC</TIME_SYSTEM><MEAN_ELEMENT_THEORY>SGP4</MEAN_ELEMENT_THEORY></metadata><data><meanElements><EPOCH>2025-05-10T12:49:04.193184</EPOCH><MEAN_MOTION>12.62267877</MEAN_MOTION><ECCENTRICITY>.0000365</ECCENTRICITY><INCLINATION>52.0061</INCLINATION><RA_OF_ASC_NODE>210.7501</RA_OF_ASC_NODE><ARG_OF_PERICENTER>139.7836</ARG_OF_PERICENTER><MEAN_ANOMALY>323.0009</MEAN_ANOMALY></meanElements><tleParameters><EPHEMERIS_TYPE>0</EPHEMERIS_TYPE><CLASSIFICATION_TYPE>U</CLASSIFICATION_TYPE><NORAD_CAT_ID>37191</NORAD_CAT_ID><ELEMENT_SET_NO>999</ELEMENT_SET_NO><REV_AT_EPOCH>67239</REV_AT_EPOCH><BSTAR>.15665E-3</BSTAR><MEAN_MOTION_DOT>-.76E-6</MEAN_MOTION_DOT><MEAN_MOTION_DDOT>0</MEAN_MOTION_DDOT></tleParameters></data></segment></body></omm>

</ndm>
