GLOBALSTAR M067         
1 32263U 07048A   25130.23091164 -.00000059  00000+0  28484-3 0  9995
2 32263  51.9697 146.9951 0000999 262.2026 177.5212 12.40672058804773
GLOBALSTAR M070         
1 32264U 07048B   25130.77578602 -.00000089  00000+0  85027-4 0  9992
2 32264  51.9748 242.4737 0000645 110.2634  14.1514 12.62317614808942
GLOBALSTAR M066         
1 32265U 07048C   25130.75263691 -.00000074  00000+0  17629-3 0  9996
2 32265  51.9616 133.8355 0001634 166.4172   5.3821 12.35103787810675
GLOBALSTAR M068         
1 32266U 07048D   25130.70576963 -.00000088  00000+0  89613-4 0  9999
2 32266  51.9897  56.5102 0001570  53.7163 332.4638 12.62822646812826
GLOBALSTAR M079         
1 37188U 10054A   25130.63286687 -.00000096  00000+0  41079-4 0  9994
2 37188  52.0036 254.1060 0000755 148.0455 224.7297 12.62273942672395
GLOBALSTAR M074         
1 37189U 10054B   25130.84633944 -.00000100  00000+0  22582-4 0  9994
2 37189  52.0016 252.7862 0000471 123.6034  18.4068 12.62274837672348
GLOBALSTAR M076         
1 37190U 10054C   25130.60669718 -.00000104  00000+0  10620-5 0  9993
2 37190  52.0026 253.6812 0000466 149.2855 224.3778 12.62262456672390
GLOBALSTAR M077         
1 37191U 10054D   25130.53407631 -.00000076  00000+0  15665-3 0  9990
2 37191  52.0061 210.7501 0000365 139.7836 323.0009 12.62267877672396
